{
    "CCSDS_OMM_VERS": "3.0",
    "COMMENT": "GENERATED VIA SPACE-TRACK.ORG API",
    "CREATION_DATE": "2025-11-22T18:56:57",
    "ORIGINATOR": "18 SPCS",
    "OBJECT_NAME": "BEIDOU 3M18",
    "OBJECT_ID": "2018-093B",
    "CENTER_NAME": "EARTH",
    "REF_FRAME": "TEME",
    "TIME_SYSTEM": "UTC",
    "MEAN_ELEMENT_THEORY": "SGP4",
    "EPOCH": "2025-11-20T19:58:57.504864",
    "MEAN_MOTION": "1.86226757",
    "ECCENTRICITY": "0.00065383",
    "INCLINATION": "54.1734",
    "RA_OF_ASC_NODE": "189.3579",
    "ARG_OF_PERICENTER": "348.6313",
    "MEAN_ANOMALY": "11.4598",
    "EPHEMERIS_TYPE": "0",
    "CLASSIFICATION_TYPE": "U",
    "NORAD_CAT_ID": "43707",
    "ELEMENT_SET_NO": "999",
    "REV_AT_EPOCH": "4765",
    "BSTAR": "0.00000000000000",
    "MEAN_MOTION_DOT": "0.00000077",
    "MEAN_MOTION_DDOT": "0.0000000000000",
    "SEMIMAJOR_AXIS": "27906.612",
    "PERIOD": "773.251",
    "APOAPSIS": "21546.724",
    "PERIAPSIS": "21510.231",
    "OBJECT_TYPE": "PAYLOAD",
    "RCS_SIZE": "LARGE",
    "COUNTRY_CODE": "PRC",
    "LAUNCH_DATE": "2018-11-18",
    "SITE": "XSC",
    "DECAY_DATE": null,
    "FILE": "4894246",
    "GP_ID": "303254136",
    "TLE_LINE0": "0 BEIDOU 3M18",
    "TLE_LINE1": "1 43707U 18093B   25324.83261001  .00000077  00000-0  00000-0 0  9993",
    "TLE_LINE2": "2 43707  54.1734 189.3579 0006538 348.6313  11.4598  1.86226757 47653"
}